[{"OBJECT_NAME":"STARLINK-5218","OBJECT_ID":"2023-021J","EPOCH":"2026-03-09T17:09:35.815968","MEAN_MOTION":14.98329838,"ECCENTRICITY":0.00032887,"INCLINATION":70.0001,"RA_OF_ASC_NODE":204.3244,"ARG_OF_PERICENTER":269.5064,"MEAN_ANOMALY":90.5718,"EPHEMERIS_TYPE":0,"CLASSIFICATION_TYPE":"U","NORAD_CAT_ID":55636,"ELEMENT_SET_NO":999,"REV_AT_EPOCH":16830,"BSTAR":4.3023057e-5,"MEAN_MOTION_DOT":4.2e-6,"MEAN_MOTION_DDOT":0},{"OBJECT_NAME":"CUBEBUG-1 (CAPITAN BETO)","OBJECT_ID":"2013-018D","EPOCH":"2026-03-09T23:22:32.558880","MEAN_MOTION":14.96591533,"ECCENTRICITY":0.00130794,"INCLINATION":98.1526,"RA_OF_ASC_NODE":224.6129,"ARG_OF_PERICENTER":115.5703,"MEAN_ANOMALY":244.6871,"EPHEMERIS_TYPE":0,"CLASSIFICATION_TYPE":"U","NORAD_CAT_ID":39153,"ELEMENT_SET_NO":999,"REV_AT_EPOCH":69622,"BSTAR":0.00052624565,"MEAN_MOTION_DOT":5.941e-5,"MEAN_MOTION_DDOT":0}]
